NORAD_CAT_ID,OBJECT_NAME,OBJECT_TYPE,EPOCH,MEAN_MOTION,ECCENTRICITY,INCLINATION,RA_OF_ASC_NODE,ARG_OF_PERICENTER,MEAN_ANOMALY,BSTAR,MEAN_MOTION_DOT,MEAN_MOTION_DDOT,TLE_LINE0,TLE_LINE1,TLE_LINE2,SEMIMAJOR_AXIS,PERIOD,APOGEE,PERIGEE,DECAYED
51989.0,STARLINK-3642,PAYLOAD,2022-10-12 20:31:06,15.0882406,0.0001706999999999,53.2175,222.9203,51.7633,308.3512,2.8364e-05,1.63e-06,0.0,0 STARLINK-3642,1 51989U 22025AK  22285.85493939  .00000163  00000-0  28364-4 0  9999,2 51989  53.2175 222.9203 0001707  51.7633 308.3512 15.08824060 33289,6917.929,95.439,540.975,538.613,0.0
51989.0,STARLINK-3642,PAYLOAD,2022-10-13 01:17:16,15.08826207,0.0001649,53.2175,222.0272,55.502,304.6127,6.9546e-05,8.19e-06,0.0,0 STARLINK-3642,1 51989U 22025AK  22286.05365815  .00000819  00000-0  69546-4 0  9998,2 51989  53.2175 222.0272 0001649  55.5020 304.6127 15.08826207 33313,6917.9230000000025,95.438,540.928,538.6469999999998,0.0
51989.0,STARLINK-3642,PAYLOAD,2022-10-13 15:35:43,15.08837631,0.0001729,53.2177,219.3521,50.9195,309.1951,0.00021734,3.172e-05,0.0,0 STARLINK-3642,1 51989U 22025AK  22286.64981339  .00003172  00000-0  21734-3 0  9999,2 51989  53.2177 219.3521 0001729  50.9195 309.1951 15.08837631 34502,6917.888000000001,95.438,540.9490000000002,538.557,0.0
51989.0,STARLINK-3642,PAYLOAD,2022-10-14 01:08:03,15.08826937,0.0001571,53.2175,217.5665,61.5682,298.5468,0.00010099,1.319e-05,0.0,0 STARLINK-3642,1 51989U 22025AK  22287.04726447  .00001319  00000-0  10099-3 0  9994,2 51989  53.2175 217.5665 0001571  61.5682 298.5468 15.08826937 34560,6917.92,95.438,540.872,538.6990000000002,0.0
51989.0,STARLINK-3642,PAYLOAD,2022-10-15 00:58:49,15.08847029,0.0001584,53.2169,213.106,56.9643,303.1501,0.00026073,3.865e-05,0.0,0 STARLINK-3642,1 51989U 22025AK  22288.04085110  .00003865  00000-0  26073-3 0  9997,2 51989  53.2169 213.1060 0001584  56.9643 303.1501 15.08847029 34716,6917.859,95.437,540.82,538.628,0.0
51989.0,STARLINK-3642,PAYLOAD,2022-10-16 02:25:00,15.08833602,0.0001471,53.2169,208.3489,70.5815,289.5336,5.8406e-06,-1.95e-06,0.0,0 STARLINK-3642,1 51989U 22025AK  22289.10069790 -.00000195  00000-0  58406-5 0  9992,2 51989  53.2169 208.3489 0001471  70.5815 289.5336 15.08833602 34877,6917.9,95.438,540.783,538.747,0.0
51989.0,STARLINK-3642,PAYLOAD,2022-10-16 11:57:19,15.08827774,0.0001603,53.2171,206.5645,63.6046,296.511,-0.00018112,-3.168e-05,0.0,0 STARLINK-3642,1 51989U 22025AK  22289.49814327 -.00003168  00000-0 -18112-3 0  9990,2 51989  53.2171 206.5645 0001603  63.6046 296.5110 15.08827774 33836,6917.918000000002,95.438,540.8919999999998,538.674,0.0
51989.0,STARLINK-3642,PAYLOAD,2022-10-16 18:18:52,15.08830914,0.0001458,53.2192,205.3726,73.244,286.8712,-9.2421e-05,-1.758e-05,0.0,0 STARLINK-3642,1 51989U 22025AK  22289.76310907 -.00001758  00000-0 -92421-4 0  9994,2 51989  53.2192 205.3726 0001458  73.2440 286.8712 15.08830914 33873,6917.908,95.438,540.7819999999998,538.765,0.0
51989.0,STARLINK-3642,PAYLOAD,2022-10-17 03:51:11,15.08832795,0.0001805,53.2182,203.5922,55.2566,304.8596,-7.117899999999997e-06,-4.01e-06,0.0,0 STARLINK-3642,1 51989U 22025AK  22290.16054819 -.00000401  00000-0 -71179-5 0  9999,2 51989  53.2182 203.5922 0001805  55.2566 304.8596 15.08832795 33932,6917.901999999999,95.438,541.016,538.519,0.0
51989.0,STARLINK-3642,PAYLOAD,2022-10-17 18:09:38,15.08847689,0.0001875999999999,53.2176,200.9162,54.8059,305.3109,0.00011257,1.504e-05,0.0,0 STARLINK-3642,1 51989U 22025AK  22290.75669768  .00001504  00000-0  11257-3 0  9991,2 51989  53.2176 200.9162 0001876  54.8059 305.3109 15.08847689 35129,6917.857,95.437,541.02,538.424,0.0
51989.0,STARLINK-3642,PAYLOAD,2022-10-17 19:45:01,15.08851175,0.0001826,53.2176,200.6188,55.0301,305.0862,0.00010422,1.371e-05,0.0,0 STARLINK-3642,1 51989U 22025AK  22290.82293592  .00001371  00000-0  10422-3 0  9992,2 51989  53.2176 200.6188 0001826  55.0301 305.0862 15.08851175 34039,6917.846,95.437,540.974,538.448,0.0
51989.0,STARLINK-3642,PAYLOAD,2022-10-18 03:41:57,15.08846985,0.0001685,53.2184,199.1324,49.892,310.2219,0.00022215,3.2500000000000004e-05,0.0,0 STARLINK-3642,1 51989U 22025AK  22291.15413366  .00003250  00000-0  22215-3 0  9993,2 51989  53.2184 199.1324 0001685  49.8920 310.2219 15.08846985 34085,6917.859,95.437,540.89,538.558,0.0
51989.0,STARLINK-3642,PAYLOAD,2022-10-18 13:14:16,15.08835951,0.0001769,53.216,197.3457,61.4278,298.6892,0.00016467,2.333e-05,0.0,0 STARLINK-3642,1 51989U 22025AK  22291.55158289  .00002333  00000-0  16467-3 0  9990,2 51989  53.2160 197.3457 0001769  61.4278 298.6892 15.08835951 35241,6917.893,95.438,540.982,538.534,0.0
51989.0,STARLINK-3642,PAYLOAD,2022-10-18 19:35:50,15.08827513,0.0001686999999999,53.2163,196.1547,69.1572,290.9601,7.9212e-05,9.72e-06,0.0,0 STARLINK-3642,1 51989U 22025AK  22291.81655237  .00000972  00000-0  79212-4 0  9999,2 51989  53.2163 196.1547 0001687  69.1572 290.9601 15.08827513 34182,6917.919,95.438,540.951,538.617,0.0
51989.0,STARLINK-3642,PAYLOAD,2022-10-19 00:21:59,15.08826578,0.000178,53.2176,195.267,53.1796,306.9359,2.9835e-05,1.87e-06,0.0,0 STARLINK-3642,1 51989U 22025AK  22292.01527725  .00000187  00000-0  29835-4 0  9996,2 51989  53.2176 195.2670 0001780  53.1796 306.9359 15.08826578 35312,6917.920999999999,95.438,541.018,538.555,0.0
51989.0,STARLINK-3642,PAYLOAD,2022-10-19 13:05:04,15.08838612,0.0001771999999999,53.2176,192.888,52.4209,307.6944,5.9659e-05,6.61e-06,0.0,0 STARLINK-3642,1 51989U 22025AK  22292.54519119  .00000661  00000-0  59659-4 0  9996,2 51989  53.2176 192.8880 0001772  52.4209 307.6944 15.08838612 35398,6917.885,95.438,540.975,538.524,0.0
51989.0,STARLINK-3642,PAYLOAD,2022-10-19 19:26:36,15.08849097,0.0001819,53.2175,191.6987,53.9377,306.1783,7.2012e-05,8.58e-06,0.0,0 STARLINK-3642,1 51989U 22025AK  22292.81014409  .00000858  00000-0  72012-4 0  9994,2 51989  53.2175 191.6987 0001819  53.9377 306.1783 15.08849097 34333,6917.853,95.437,540.976,538.4590000000002,0.0
51989.0,STARLINK-3642,PAYLOAD,2022-10-20 00:12:45,15.08853005,0.0001831999999999,53.2166,190.8065,55.106,305.0104,0.00018752,2.699e-05,0.0,0 STARLINK-3642,1 51989U 22025AK  22293.00886219  .00002699  00000-0  18752-3 0  9997,2 51989  53.2166 190.8065 0001832  55.1060 305.0104 15.08853005 34361,6917.840999999999,95.437,540.9730000000002,538.438,0.0
51989.0,STARLINK-3642,PAYLOAD,2022-10-20 19:17:23,15.08836843,0.000169,53.2167,187.2375,57.7442,302.3714,9.5881e-05,1.238e-05,0.0,0 STARLINK-3642,1 51989U 22025AK  22293.80374830  .00001238  00000-0  95881-4 0  9993,2 51989  53.2167 187.2375 0001690  57.7442 302.3714 15.08836843 34481,6917.89,95.438,540.924,538.586,0.0
51989.0,STARLINK-3642,PAYLOAD,2022-10-21 09:35:51,15.08847543,0.0001776999999999,53.2169,184.5621,52.3085,307.8068,0.00014857,2.078e-05,0.0,0 STARLINK-3642,1 51989U 22025AK  22294.39990315  .00002078  00000-0  14857-3 0  9996,2 51989  53.2169 184.5621 0001777  52.3085 307.8068 15.08847543 35670,6917.857,95.437,540.952,538.493,0.0
51989.0,STARLINK-3642,PAYLOAD,2022-10-21 19:08:10,15.08842396,0.0001631999999999,53.2168,182.7794,53.0233,307.0908,-3.0571e-05,-7.75e-06,0.0,0 STARLINK-3642,1 51989U 22025AK  22294.79734304 -.00000775  00000-0 -30571-4 0  9990,2 51989  53.2168 182.7794 0001632  53.0233 307.0908 15.08842396 34634,6917.873000000001,95.437,540.867,538.609,0.0
51989.0,STARLINK-3642,PAYLOAD,2022-10-21 23:54:20,15.08840322,0.0001771,53.2172,181.8862,53.1246,306.9908,-3.5833e-05,-8.58e-06,0.0,0 STARLINK-3642,1 51989U 22025AK  22294.99606550 -.00000858  00000-0 -35833-4 0  9991,2 51989  53.2172 181.8862 0001771  53.1246 306.9908 15.08840322 35764,6917.879,95.438,540.97,538.519,0.0
51989.0,STARLINK-3642,PAYLOAD,2022-10-22 12:37:24,15.08846417,0.0001768,53.2168,179.5068,51.9331,308.1821,0.00024611,3.632e-05,0.0,0 STARLINK-3642,1 51989U 22025AK  22295.52598232  .00003632  00000-0  24611-3 0  9990,2 51989  53.2168 179.5068 0001768  51.9331 308.1821 15.08846417 34744,6917.861,95.437,540.9490000000002,538.503,0.0
51989.0,STARLINK-3642,PAYLOAD,2022-10-22 20:34:20,15.08840739,0.0001806,53.2166,178.0195,53.4562,306.6596,0.00012852,1.758e-05,0.0,0 STARLINK-3642,1 51989U 22025AK  22295.85718532  .00001758  00000-0  12852-3 0  9994,2 51989  53.2166 178.0195 0001806  53.4562 306.6596 15.08840739 34791,6917.878000000002,95.438,540.992,538.494,0.0
51989.0,STARLINK-3642,PAYLOAD,2022-10-23 09:17:25,15.08856965,0.0001795,53.2163,175.6412,54.3775,305.7384,0.00035722,5.404e-05,0.0,0 STARLINK-3642,1 51989U 22025AK  22296.38709685  .00005404  00000-0  35722-3 0  9995,2 51989  53.2163 175.6412 0001795  54.3775 305.7384 15.08856965 35970,6917.829000000002,95.436,540.935,538.452,0.0
51989.0,STARLINK-3642,PAYLOAD,2022-10-23 12:28:11,15.08860349,0.0001778,53.2162,175.0463,54.9616,305.1543,0.00048443,7.434e-05,0.0,0 STARLINK-3642,1 51989U 22025AK  22296.51957552  .00007434  00000-0  48443-3 0  9997,2 51989  53.2162 175.0463 0001778  54.9616 305.1543 15.08860349 34892,6917.818,95.436,540.913,538.453,0.0
51989.0,STARLINK-3642,PAYLOAD,2022-10-23 18:49:43,15.08851077,0.0001751,53.2163,173.8573,52.9935,307.1217,0.00022997,3.375e-05,0.0,0 STARLINK-3642,1 51989U 22025AK  22296.78453677  .00003375  00000-0  22997-3 0  9991,2 51989  53.2163 173.8573 0001751  52.9935 307.1217 15.08851077 34937,6917.847,95.437,540.923,538.5,0.0
51989.0,STARLINK-3642,PAYLOAD,2022-10-24 01:11:16,15.08857111,0.0001791,53.216,172.6679,55.0921,305.0239,0.00040263,6.129e-05,0.0,0 STARLINK-3642,1 51989U 22025AK  22297.04949327  .00006129  00000-0  40263-3 0  9999,2 51989  53.2160 172.6679 0001791  55.0921 305.0239 15.08857111 36074,6917.828,95.436,540.932,538.4540000000002,0.0
51989.0,STARLINK-3642,PAYLOAD,2022-10-24 10:43:35,15.08845784,0.0001568,53.2153,170.8832,62.0498,298.0652,-2.2592e-06,-3.24e-06,0.0,0 STARLINK-3642,1 51989U 22025AK  22297.44693317 -.00000324  00000-0 -22592-5 0  9998,2 51989  53.2153 170.8832 0001568  62.0498 298.0652 15.08845784 36136,6917.863,95.437,540.812,538.643,0.0
